{
    "links": {
        "self": "http://www.neowsapp.com/rest/v1/neo/3662251?api_key=iIulBulltgU6a56xZRHN4H3l9WmuAYTsLGpBGhQ2"
    },
    "id": "3662251",
    "neo_reference_id": "3662251",
    "name": "(2014 DG6)",
    "designation": "2014 DG6",
    "nasa_jpl_url": "http://ssd.jpl.nasa.gov/sbdb.cgi?sstr=3662251",
    "absolute_magnitude_h": 23.4,
    "estimated_diameter": {
        "kilometers": {
            "estimated_diameter_min": 0.0555334912,
            "estimated_diameter_max": 0.1241766613
        },
        "meters": {
            "estimated_diameter_min": 55.5334911581,
            "estimated_diameter_max": 124.1766612574
        },
        "miles": {
            "estimated_diameter_min": 0.0345069009,
            "estimated_diameter_max": 0.0771597762
        },
        "feet": {
            "estimated_diameter_min": 182.1964991311,
            "estimated_diameter_max": 407.4037573197
        }
    },
    "is_potentially_hazardous_asteroid": false,
    "close_approach_data": [
        {
            "close_approach_date": "2014-02-17",
            "close_approach_date_full": "2014-Feb-17 17:04",
            "epoch_date_close_approach": 1392656640000,
            "relative_velocity": {
                "kilometers_per_second": "4.3071651303",
                "kilometers_per_hour": "15505.7944690464",
                "miles_per_hour": "9634.6976799472"
            },
            "miss_distance": {
                "astronomical": "0.163750368",
                "lunar": "63.698893152",
                "kilometers": "24496706.26451616",
                "miles": "15221547.440236608"
            },
            "orbiting_body": "Earth"
        }
    ],
    "orbital_data": {
        "orbit_id": "10",
        "orbit_determination_date": "2017-04-06 08:42:25",
        "first_observation_date": "2014-02-21",
        "last_observation_date": "2014-03-25",
        "data_arc_in_days": 32,
        "observations_used": 42,
        "orbit_uncertainty": "6",
        "minimum_orbit_intersection": ".163526",
        "jupiter_tisserand_invariant": "4.487",
        "epoch_osculation": "2459000.5",
        "eccentricity": ".2559261948032615",
        "semi_major_axis": "1.504826391691254",
        "inclination": "8.118593909069341",
        "ascending_node_longitude": "359.8117848040338",
        "orbital_period": "674.2609774216942",
        "perihelion_distance": "1.119701899426189",
        "perihelion_argument": "129.7084729213797",
        "aphelion_distance": "1.889950883956319",
        "perihelion_time": "2458708.655771776753",
        "mean_anomaly": "155.8208552452829",
        "mean_motion": ".5339178924110418",
        "equinox": "J2000",
        "orbit_class": {
            "orbit_class_type": "AMO",
            "orbit_class_description": "Near-Earth asteroid orbits similar to that of 1221 Amor",
            "orbit_class_range": "1.017 AU < q (perihelion) < 1.3 AU"
        }
    },
    "is_sentry_object": false
}